#dP2019  1 27  0  0  0.00000000      96 __u+U ITR00 FIT  IAC
## 2038      0.00000000   900.00000000 58510 0.0000000000000
+   98   C01C02C03C04C05C06C07C08C09C10C11C12C13C14C16C30E01
+        E02E03E04E05E07E08E09E11E12E13E14E15E18E19E21E24E25
+        E26E27E30E31E33E36G01G02G03G04G05G06G07G08G09G10G11
+        G12G13G14G15G16G17G18G19G20G21G22G23G24G25G26G27G28
+        G29G30G31G32J01J02J03J07R01R02R03R04R05R07R08R09R10
+        R11R13R14R15R17R18R19R20R21R22R23R24R26  0  0  0  0
++        12 12 12 13 12  9  9  8  8  9  8  8  9  8  9 19  5
++         5  5  5  5  5  6  5  5  5  6  6  6  6  5  5  5  5
++         5  5  6  5  7  6  3  3  3  4  3  3  3  3  3  3  3
++         3  3  3  3  3  4  3  4  3  4  3  3  3  3  5  3  4
++         3  3  3  3 10 10 10 16  5  6  6  6  5  5  5  6  5
++         5  5  6  5  5  5  6  6  5  5  5  6  9  0  0  0  0
%c M  cc GPS ccc cccc cccc cccc cccc ccccc ccccc ccccc ccccc
%c cc cc ccc ccc cccc cccc cccc cccc ccccc ccccc ccccc ccccc
%f  0.0000000  0.000000000  0.00000000000  0.000000000000000
%f  0.0000000  0.000000000  0.00000000000  0.000000000000000
%i    0    0    0    0      0      0      0      0         0
%i    0    0    0    0      0      0      0      0         0
/* INFORMATION & ANALYSIS CENTER (IAC) OF MCC   (RAPID DATA)
/* S/V CLOCKS ARE ALIGNED TO GPS & GLONASS TIME RESPECTIVELY
/* USING THE BROADCAST EPHEMERIS                            
/* PCV:IGS14_2035 OL/AL:FES2004  NONE     YN ORB:CoN CLK:CoN
*  2019 01 27  1 45  0.00000000
PC01 -32266.798536  27126.036096  -1104.623817    138.701472
PC02   4497.369513  41907.338686    529.464124   -274.257533
PC03 -14727.735432  39535.339034   -483.101754    -52.728646
PC04 -39640.855250  14330.983490   -667.222253   -197.288850
PC05  21895.448103  36042.260719    830.595972   -104.779190
PC06  -8902.962819  23822.333859  33959.783710    324.590447
PC07 -24725.057378  29069.591560 -18296.898978    179.195726
PC08 -11501.009406  37948.444757 -13791.628571     98.513966
PC09   4866.780279  30314.176714  29224.908534    482.274246
PC10 -10728.948640  29991.776991 -27657.262904   -441.721339
PC11   -255.022203 -23017.040541  15882.278501     24.258639
PC12  17321.682131   1603.456216  21870.320243    375.193446
PC13  -3936.125830  41798.742634  -1781.304440   -507.419464
PC14  17569.394117 -12201.048608 -17893.318767    831.589442
PC16  -6454.734602  24330.930804  33840.519525   -118.763276
PC30  -7047.829029  17118.542512 -20879.461110 999999.999999
PE01  20836.335410 -20179.077471   5917.142222   -529.376014
PE02 -20799.227741  20188.542317  -5960.937642     45.001795
PE03 -14086.576824  11824.434068  23191.432733   -126.692143
PE04  -7008.084936 -19494.417523 -21143.510713   -208.408841
PE05 -27056.734389  -2819.013323  11666.376033    118.126352
PE07  24155.547877  15759.970715   6639.367082   -120.103178
PE08   7300.756847  19322.112582  21195.753129   6415.513910
PE09 -24321.111448 -15516.282134  -6658.289529   6546.247715
PE11 -13893.767922 -19770.459166 -17079.854660   5720.239444
PE12  -2959.625644 -29429.111083    918.821712   6031.980947
PE13  13891.539700  19858.163473  17011.207688    382.220109
PE14  19508.242395   4554.639596  14069.100025   6453.960869
PE15   3378.307172  29402.531414   -528.089532    921.833184
PE18 -21010.411727   5369.008614 -23614.204366   5576.117172
PE19  15870.808866 -10472.237891 -22688.600795     -8.825046
PE21  25297.543507  -8008.132690 -13124.556939   -516.455822
PE24 -15132.277496  -8521.381063  23956.106160   6265.106388
PE25 -25286.961166   7968.272017  13164.223274   1911.780685
PE26  16510.534782  -1117.062550  24553.994344   4973.815964
PE27  14739.368075   8801.796139 -24111.330668    541.602360
PE30  -4057.952685  20285.496843 -21172.504654   5156.195803
PE31   4450.247106 -20436.193531  20952.859460    922.354523
PE33   9170.157612 -21767.651825  17850.902212    847.958644
PE36 -16307.954562   1349.872866 -24652.075321    754.894435
PG01  13538.264714 -19232.593014  11860.356539   -152.278682
PG02 -14776.848136  -3088.734784 -21255.845023   -123.762991
PG03  20546.454012 -13128.420841 -10480.504284    179.686013
PG04  -6765.032960 -21476.016549 -14077.219572     96.408459
PG05 -25292.407185   1216.305019  -8468.469417      0.935792
PG06  -9108.000018 -16146.753197 -18970.471700    288.715278
PG07   5802.691661 -25604.057799   1902.713317     44.164245
PG08  18161.695198  -1008.836476  19468.851408   -130.524231
PG09   -975.147799 -19159.054279 -18414.351703    466.706409
PG10   8790.986002  13075.936168  21455.455962    128.471710
PG11  11318.077391 -15597.863498  17832.556346   -669.558355
PG12 -22677.542533  10570.762662  -8833.050640    273.068301
PG13 -19892.996399  -7793.229847  15683.125435    -76.932467
PG14  18456.282200  19072.458304  -2196.064033    -92.486276
PG15 -17060.107986   4944.173516  19597.362223   -330.548982
PG16  25635.294853    658.123517  -7910.818043    -15.253856
PG17 -13441.324585 -21941.743646   7197.386137      0.966971
PG18  15587.723530 -10100.093719  18454.149161     19.809514
PG19 -18300.196834 -18972.565758  -3032.843858   -359.091811
PG20  -1496.116980  16903.161264  20290.257906    521.560992
PG21  -1771.990190  26228.270114   4929.023139   -261.701014
PG22  24268.914712 -10374.202694  -2484.506038   -631.817526
PG23   9535.438087 -12212.482565 -21244.326914   -199.257345
PG24 -14730.352926  15662.441211  15232.438374    -61.333761
PG25 -13075.123140  15604.045321 -17115.180931   -711.667858
PG26  20562.344135   5701.655604 -15937.271016    107.573429
PG27  21493.483001   8931.234658  12971.174539    -56.176745
PG28  -5884.322361 -14062.605750  22361.066369    763.066188
PG29  -3427.115807  16597.759747 -20470.271052    284.352377
PG30  -1964.803745 -23422.434539  12213.587743    -42.466636
PG31  10560.423044  13669.142826 -20039.955038     62.950976
PG32  16345.307870  20508.388176   4594.079891   -256.286083
PJ01 -28566.937610  25945.963486  22121.163192   -203.528188
PJ02 -33635.767450  24874.893266   9881.975779     -0.653471
PJ03 -20244.331394  21565.327177 -25398.595565     -0.015736
PJ07 -25394.110640  33654.659585     27.957708    635.047148
PR01  24916.653990   5358.617668    848.164043     38.536404
PR02  17881.805550  -4636.752899 -17583.489952    351.319866
PR03    289.037556 -11117.440996 -22919.902469     -9.328431
PR04 -17879.279711 -10896.413083 -14546.562435    292.844366
PR05 -25035.608974  -4591.209480   1504.129066     20.842239
PR07    307.122795  11245.459482  22924.252402    -56.664230
PR08  17270.431203  11112.799601  15180.752266     19.359273
PR09 -18009.476296  17948.255249   2438.282781     51.092482
PR10  -9841.288946  19561.705853 -13167.067918     40.516558
PR11   5387.084684  10280.472631 -22705.185133    -54.775637
PR13  18030.087093 -17660.345307  -3728.970053    -19.438031
PR14   9528.363846 -19692.700636  13122.936124     35.344334
PR15  -4583.686679 -10811.212148  22664.264933     99.501569
PR17  -2003.107677 -22976.517684  10951.596306    199.478660
PR18 -10009.673840 -22650.086552  -5971.256515     31.002583
PR19 -12319.489929 -10343.224469 -19788.949171    -61.710617
PR20  -7498.294976   9986.400978 -22235.820682   -366.880574
PR21   2344.787254  23138.266149 -10442.828162    -27.825670
PR22  10741.602906  21627.117609   8424.693969    -64.283799
PR23  12001.694417   5163.051531  21909.001992    205.737995
PR24   6684.309882 -11531.929891  21728.383976   -176.489360
PR26  -8271.299962   7992.817109 -22746.883301     -5.736936
EOF
